{"type":"FeatureCollection","name":"LocalTwin Daegu map-derived analysis corridors","metadata":{"retrievedAt":"2026-09-19T17:08:41.507380Z","sourceProvider":"OpenStreetMap contributors","sourceMode":"modelled-map-derived","license":"ODbL","limitation":"실제 OSM 도로/시장 geometry를 buffer한 분석 corridor이며 SEMAS 공식 상권영역 polygon이 아니다.","replacementPath":"SEMAS storeZone coords polygon when an approved service key is available"},"features":[{"type":"Feature","properties":{"zoneId":"dongseongro","label":"동성로","memberCellIds":["hex-dongseongro-01","hex-dongseongro-02"],"sourceMode":"modelled-map-derived","boundaryMeaning":"실제 지도 도로/시장 geometry 기반 분석권역이며 공식 상권 경계가 아님","sourceProvider":"OpenStreetMap contributors","sourceUrl":"https://www.openstreetmap.org/","queries":["동성로 대구 중구"],"sourceFeatureNames":["동성로"],"sourceOsmIds":["way:1137540668","way:1161103708","way:1161103709","way:222272630","way:281984576","way:32895615","way:32895616","way:372230881"],"bufferMeters":145,"labelLon":128.5961249,"labelLat":35.8710145},"geometry":{"type":"Polygon","coordinates":[[[128.5932569977628,35.86882044868742],[128.59332531510353,35.869296661336776],[128.5933352889979,35.86950307303255],[128.59333533435333,35.869507743866016],[128.59330852676706,35.869645083424906],[128.59329146298955,35.869772623589206],[128.59328984017588,35.86990091095554],[128.5933036740291,35.87002871004757],[128.5933328313951,35.87015479008541],[128.59337703154202,35.87027793683896],[128.59343584886145,35.870396964321955],[128.59350871696458,35.87051072621432],[128.59359493413487,35.87061812690261],[128.5936936700843,35.87071813203227],[128.59380397394827,35.870809778470125],[128.59392478344245,35.87089218358101],[128.59405493509294,35.8709645537291],[128.5940686536297,35.87097067052061],[128.59406526079832,35.871079665303455],[128.5940665599006,35.87112416531479],[128.5940686891927,35.87116721524097],[128.59410577850363,35.871698915660424],[128.59411683121982,35.87179479315042],[128.59421792076924,35.872422211202625],[128.5942228895501,35.87320868845907],[128.59417700013702,35.873621096908145],[128.59417641260774,35.87362650185424],[128.59415801199708,35.87379987477789],[128.59414871310014,35.87388744781213],[128.59411637376806,35.87419286092354],[128.5941117143725,35.87425308262967],[128.59409070573273,35.87468238229677],[128.59408279303906,35.87484467525151],[128.59408427897247,35.87497296361734],[128.5941012077313,35.87510051569616],[128.59413341635528,35.87522610308584],[128.59418059472623,35.875348516299624],[128.59424228855215,35.87546657641465],[128.59431790373992,35.87557914642627],[128.59440671211456,35.875685142198805],[128.59450785843077,35.87578354290736],[128.59462036860782,35.87587340086995],[128.59474315911052,35.87595385067536],[128.5948750473838,35.876024117518654],[128.59501476324226,35.87608352466412],[128.59516096110372,35.876131499963634],[128.59531223294962,35.87616758136773],[128.595467121887,35.87619142137622],[128.59562413618158,35.876202790385406],[128.59578176362666,35.87620157889977],[128.59593848610922,35.87618779858665],[128.59609279423324,35.87616158216394],[128.59624320185858,35.876123182121624],[128.59638826041612,35.876072968289805],[128.59652657286057,35.87601142427636],[128.59665680712672,35.87593914280868],[128.59677770895965,35.8758568200245],[128.59688811399494,35.875765248766584],[128.59698695897254,35.87566531094617],[128.59707329197659,35.875557969048366],[128.59714628160236,35.87544425686196],[128.59720522496193,35.87532526952229],[128.59724955445176,35.87520215296359],[128.59726843253333,35.87512090095204],[128.5973761600125,35.87511408133406],[128.5975325285378,35.87509786824465],[128.5976861914397,35.87506925882492],[128.59783566879304,35.8750285286118],[128.5979795209894,35.87497606987711],[128.59811636260346,35.87491238784914],[128.59824487573738,35.87483809584623],[128.5983638227143,35.874753909369005],[128.59847205799898,35.874660639208855],[128.59856853923006,35.87455918363827],[128.59865233725864,35.87445051975897],[128.5987226450958,35.87433569409065],[128.598778785683,35.874215812491414],[128.5988202184109,35.874092029506876],[128.5988465443236,35.87396553725045],[128.5988575099583,35.87383755392197],[128.5988530097836,35.873709312075526],[128.59883308721308,35.87358204674893],[128.5987979341842,35.873456983569845],[128.59874788930725,35.87333532695246],[128.59868343460153,35.87321824849887],[128.59860519085112,35.873106875716594],[128.59851391162437,35.873002281160865],[128.5984104760152,35.872905472106346],[128.59829588017607,35.872817380847614],[128.5981712277238,35.87273885572173],[128.59803771911163,35.87267065293953],[128.59789664006854,35.872613429303954],[128.59774934921847,35.872567735885696],[128.5975972649977,35.87253401271712],[128.59744185199642,35.87251258455517],[128.59743097474728,35.87251196706084],[128.59742979708605,35.872326745532774],[128.59741617614648,35.87216348428403],[128.5973096611834,35.871502558466474],[128.59729462947107,35.87128719371281],[128.59730477583935,35.87127353818087],[128.59738574912072,35.87126997308883],[128.59754155126745,35.87125051986197],[128.59769426040586,35.87121873048291],[128.5978424057978,35.87117491111467],[128.59798456066468,35.87111948378057],[128.5981193559303,35.87105298229911],[128.59824549340755,35.870976047142264],[128.59836175830213,35.870889419266184],[128.59846703091245,35.870793932974415],[128.59856029741306,35.87069050788197],[128.5986406596184,35.87058014005766],[128.59870734363182,35.87046389243048],[128.59875970729706,35.8703428845518],[128.59879724638114,35.870218281812825],[128.5988195994279,35.87009128422026],[128.59882655123664,35.8699631148392],[128.5988180349317,35.869835008014],[128.59879413260393,35.86970819748063],[128.59875507451696,35.86958390448535],[128.5987012368872,35.86946332602371],[128.59863313825787,35.86934762331338],[128.59855143450318,35.869237910611695],[128.59845691250985,35.86913524448565],[128.5983504825979,35.86904061363761],[128.59823316975266,35.868954929384614],[128.5981061037535,35.868879016883085],[128.59797050829374,35.868813607183206],[128.5978276891965,35.86875933018973],[128.5976790218404,35.86871670859651],[128.5975259379157,35.868686152853684],[128.59736991163854,35.86866795721548],[128.59721244555593,35.868662296907004],[128.59682743525835,35.86866384831411],[128.59680806490493,35.86863145660414],[128.5967933728195,35.86860751395441],[128.59672917145346,35.868505514699486],[128.59663692394645,35.868377443870976],[128.5966075729079,35.8683415364368],[128.5963741345041,35.86802981336755],[128.59635043439383,35.86799320922147],[128.59629527194568,35.86790732547917],[128.59642309837514,35.86779561491941],[128.5965247345221,35.86769755594858],[128.5966140727244,35.86759186036403],[128.5966902526324,35.86747954610014],[128.5967525406311,35.86736169483023],[128.59680033690384,35.8672394415485],[128.59683318120673,35.86711396363854],[128.59685075729902,35.86698646953387],[128.59685289598582,35.866858187079494],[128.59683957674477,35.86673035170686],[128.59681092792098,35.86660419453593],[128.59676722548804,35.866480930519],[128.59670889038756,35.86636174674039],[128.59663648447292,35.86624779098482],[128.5965507050962,35.866140160684424],[128.5964523783906,35.86603989235068],[128.5963424513131,35.86594795159342],[128.5962219825241,35.8658652238225],[128.59616989381564,35.86583605341058],[128.5955861845847,35.86618539626465],[128.59497177892487,35.866634912692],[128.59441445484026,35.86713128102858],[128.59391957983374,35.86766972179523],[128.5934919203838,35.86824505030478],[128.59320318191934,35.8687366559181],[128.5932569977628,35.86882044868742]]]}},{"type":"Feature","properties":{"zoneId":"gyodong","label":"교동","memberCellIds":["hex-gyodong-01","hex-gyodong-02"],"sourceMode":"modelled-map-derived","boundaryMeaning":"실제 지도 도로/시장 geometry 기반 분석권역이며 공식 상권 경계가 아님","sourceProvider":"OpenStreetMap contributors","sourceUrl":"https://www.openstreetmap.org/","queries":["교동길 대구 중구","경상감영길 대구 중구"],"sourceFeatureNames":["경상감영길","교동길"],"sourceOsmIds":["way:1219921972","way:1219921974","way:32895812","way:32895813","way:32895814","way:35971641","way:385706018","way:417152511","way:733130756","way:733130759","way:733130760","way:733130775","way:886639888"],"bufferMeters":82,"labelLon":128.5966442,"labelLat":35.8725903},"geometry":{"type":"Polygon","coordinates":[[[128.58878061058226,35.873263070499206],[128.58886974976235,35.873262528294745],[128.58895839440342,35.87325487744597],[128.5890456907858,35.87324019163659],[128.58913079817563,35.87321861230264],[128.5892128969225,35.8731903472702],[128.5892911963539,35.87315566875371],[128.5893649423904,35.873114910734216],[128.5894334248084,35.87306846574258],[128.58949598408023,35.873016781078796],[128.58955201772613,35.872960354504045],[128.58960098611627,35.87289972944644],[128.5896424176675,35.872835489767276],[128.58967591338475,35.87276825413774],[128.5897011507029,35.87269867008048],[128.5897178865927,35.872627407733354],[128.58972990025018,35.87255791082932],[128.58980700680135,35.87253600169057],[128.58988788144237,35.872505489526525],[128.589964692072,35.872468672299306],[128.59003669895012,35.87242590458723],[128.5901032086038,35.87237759827581],[128.59030010866417,35.87221979724532],[128.59032904804704,35.872194155802404],[128.59081809489777,35.87225611415798],[128.59082002902724,35.872256357456],[128.59286317624515,35.87251151691315],[128.5930565448261,35.872545661200384],[128.59305937273723,35.87286995058701],[128.59306217005448,35.87318455361775],[128.59306718823143,35.87325699108556],[128.59308090581902,35.8733286794138],[128.59310319073208,35.87339892820196],[128.5931338283757,35.87346706091127],[128.5931725237109,35.87353242138045],[128.5932189040955,35.87359438014507],[128.59327252287204,35.87365234049995],[128.59333286366925,35.87370574424602],[128.5933993453744,35.87375407706647],[128.59347132772987,35.873796873480316],[128.59354811749913,35.87383372132554],[128.5936289751434,35.873864265728805],[128.59371312194406,35.87388821252339],[128.593799747503,35.87390533108251],[128.59388801754758,35.87391545654054],[128.5939770819662,35.87391849138099],[128.5940660829961,35.87391440637576],[128.594154163485,35.87390324086657],[128.59418990631326,35.87389572948471],[128.5942300847301,35.873907597427454],[128.59431645671108,35.87392554477906],[128.5944045742124,35.87393651527006],[128.5945106751809,35.87394541535752],[128.59455433390158,35.87394821378814],[128.59578004522865,35.8740026143595],[128.59578038824114,35.87400261586255],[128.59578072944757,35.87400264451291],[128.59580719032925,35.874003802490115],[128.59583335133846,35.87407050966379],[128.59586459173056,35.87413846090839],[128.59590386512903,35.874203592722715],[128.59595079332422,35.8742652778443],[128.59600492438278,35.87432292220324],[128.5960657369995,35.87437597064362],[128.59613264551734,35.874423912270466],[128.59620500556804,35.87446628537014],[128.59628212027724,35.87450268185748],[128.5963632469765,35.874532751205976],[128.5964476043559,35.87455620382407],[128.59653437998895,35.87457281384427],[128.5966227381577,35.87458242129857],[128.59671182790171,35.874584933659314],[128.59680079121432,35.874580326730225],[128.59688877130648,35.87456864487964],[128.59697492085925,35.874550000613084],[128.59704202291354,35.87452956432708],[128.59705607550094,35.87453268090521],[128.59714396571752,35.87454480244175],[128.59723289254066,35.87454985410646],[128.59732199953277,35.874547787247586],[128.597938405215,35.874508786927635],[128.5980268340933,35.874499620996005],[128.59811373327156,35.8744834447244],[128.5981982658416,35.87446041390321],[128.5982796176894,35.87443075033746],[128.59835700533625,35.874394739710525],[128.5984296834845,35.874352728832626],[128.59849695219592,35.87430512230045],[128.59855816363242,35.87425237860036],[128.5986127282957,35.87419500569263],[128.59866012070395,35.87413355611896],[128.59869988445254,35.87406862168106],[128.59872466675156,35.87401570907479],[128.59887215283513,35.87400253296339],[128.59949347962217,35.87399029464677],[128.59958827736833,35.873984376248686],[128.59968179574795,35.87397042560409],[128.60016496023,35.87387684093052],[128.60023019064096,35.87352874471124],[128.6002602362708,35.873069305633486],[128.60023480759804,35.87260968192008],[128.60019100204607,35.87236236086586],[128.60013563569333,35.87236626292458],[128.6000480086332,35.872379576576286],[128.5993540815472,35.87251398535386],[128.5987895268484,35.87252510518102],[128.5987123892708,35.87252930281619],[128.59846915759476,35.872551032657206],[128.5985932363862,35.872526631508606],[128.59860953806265,35.87252329540704],[128.59925324347725,35.872386394227405],[128.59925536859873,35.872385940021495],[128.60015148032642,35.87219346543853],[128.60016066739018,35.87219109403376],[128.60015415046942,35.8721542999702],[128.60001904257825,35.871707545258154],[128.59983078593925,35.87127372010295],[128.59959119431682,35.87085700224119],[128.59954550648865,35.87079438012008],[128.59879289771283,35.87095603132796],[128.59815839774492,35.871090974689004],[128.5973712741973,35.87124576670123],[128.5973580708988,35.87124844850581],[128.59582284105124,35.871570229379415],[128.5946130021778,35.87131835057052],[128.5945640090068,35.87130931730343],[128.59447589831666,35.87129514421303],[128.5943742064308,35.871271294176466],[128.59434320828015,35.87126450455585],[128.59418020965128,35.87123130486002],[128.59416603214936,35.871229012241535],[128.5941520726519,35.87122595942798],[128.5935001779293,35.87111097807257],[128.5932210799825,35.871061696125004],[128.59316624985843,35.87105343981637],[128.59109653558824,35.87079496307956],[128.59016771077953,35.87067728669549],[128.59001849542804,35.87065840676441],[128.58960117434734,35.87059425082653],[128.5894313315986,35.87082270933527],[128.5891875021821,35.87123779513258],[128.5889948315121,35.871670334132624],[128.58885517584272,35.87211616099965],[128.58876988097168,35.87257098236697],[128.58873976924713,35.873030418176924],[128.58875249222353,35.873260989021254],[128.58878061058226,35.873263070499206]]]}},{"type":"Feature","properties":{"zoneId":"buksungro","label":"북성로","memberCellIds":["hex-buksungro-01","hex-buksungro-02"],"sourceMode":"modelled-map-derived","boundaryMeaning":"실제 지도 도로/시장 geometry 기반 분석권역이며 공식 상권 경계가 아님","sourceProvider":"OpenStreetMap contributors","sourceUrl":"https://www.openstreetmap.org/","queries":["북성로 대구 중구"],"sourceFeatureNames":["북성로"],"sourceOsmIds":["way:313950962","way:314034917","way:37400953","way:526172326","way:526175979","way:886639893","way:888188138"],"bufferMeters":130,"labelLon":128.58655,"labelLat":35.8736306},"geometry":{"type":"Polygon","coordinates":[[[128.58100629993015,35.874764693720216],[128.58212810468612,35.87461479431176],[128.5825264402883,35.874645855547136],[128.58324246499464,35.87471411835715],[128.5832895775247,35.874717971838436],[128.5833876789525,35.874724671944996],[128.58468567195317,35.874813185235254],[128.58511464784672,35.87484239045153],[128.58592974746531,35.87489798367948],[128.5859548287068,35.87489951484906],[128.587554152084,35.874985716253775],[128.58755565200337,35.87498573704767],[128.58854743233928,35.87510042411613],[128.58859429741264,35.8751052065478],[128.58882594835654,35.87512571116311],[128.588827073854,35.87512802229015],[128.58889177449936,35.87523028263073],[128.58896847916733,35.8753268890654],[128.589056449175,35.87541691119959],[128.58915483733702,35.87549948204761],[128.589262696124,35.87557380638303],[128.58937898678744,35.87563916839808],[128.58950258936392,35.875694938598215],[128.58963231346172,35.87574057986531],[128.5897669097262,35.87577565263122],[128.58990508187333,35.875799819111776],[128.59004549917537,35.875812846560294],[128.5901868092787,35.87581460950954],[128.59032765122996,35.875805090980215],[128.590466668585,35.87578438264456],[128.59060252247457,35.87575268394329],[128.59073390450033,35.875710300164656],[128.59085954933767,35.875657639503785],[128.59097824692293,35.87559520913098],[128.59108885410845,35.87552361030664],[128.59119030567263,35.87544353258991],[128.59128162457907,35.875355747197],[128.59128789995316,35.87534835120593],[128.59136505089307,35.875359792503154],[128.59145159306163,35.875370426199495],[128.5924235843059,35.87546536733305],[128.59299862999268,35.875533538872624],[128.5930221844859,35.87553616977737],[128.5931127857848,35.87554566992277],[128.5931373125574,35.87554806784114],[128.5935960191771,35.87558966848517],[128.59363536285645,35.87559165257866],[128.59367456357194,35.87559502522641],[128.59367962714114,35.87559505466986],[128.59368466639728,35.875595459109995],[128.59389273637592,35.87560379847943],[128.59412909108408,35.87562509726617],[128.59427015307128,35.87563213028833],[128.5944113828071,35.875627876221266],[128.5945514201122,35.87561237603538],[128.59468891629294,35.87558577901196],[128.59473323509445,35.87557336277961],[128.59461683835832,35.8751884038679],[128.5943417261243,35.874554339806735],[128.59399158256903,35.87394527496908],[128.59356978109,35.87336707435996],[128.59308038485966,35.872825305652306],[128.59307241970444,35.872818092790254],[128.5930276247304,35.87284207852523],[128.59291774337245,35.87291441018644],[128.59281710169387,35.87299515942596],[128.59272666892772,35.87308354860853],[128.59268777707175,35.87313019652276],[128.59183827020013,35.87304721932637],[128.59119895099727,35.872952408181476],[128.5910455137066,35.872936524873175],[128.59009704520116,35.8728802401734],[128.58892917790726,35.87277687135042],[128.5879338761093,35.87266177707024],[128.58779315335028,35.87265120409926],[128.58779247961704,35.87265120745689],[128.58774444494895,35.87264668342483],[128.5867653836448,35.87259391604714],[128.58675960996962,35.87254016262103],[128.58673356240436,35.872427111032906],[128.58669402583027,35.8723166818046],[128.58664138105692,35.872209938417335],[128.58657613512588,35.87210790885197],[128.58649891642585,35.87201157568953],[128.58641046863968,35.87192186664916],[128.58631164358138,35.8718396456546],[128.58620339299208,35.87176570451496],[128.58608675937415,35.87170075530005],[128.58596286595196,35.871645423483784],[128.58583290585503,35.87160024192132],[128.58569813062917,35.87156564571814],[128.5855598381847,35.8715419680405],[128.5854193602989,35.87152943690731],[128.58527804979224,35.87152817299465],[128.5851372675023,35.87153818847377],[128.5849983691804,35.871559386893885],[128.58486269243738,35.871591564110986],[128.5847315438637,35.87163441025344],[128.5846061864482,35.87168751270582],[128.5844878274166,35.871750360081954],[128.5843776066065,35.87182234714909],[128.58427658549107,35.87190278065578],[128.5841857369571,35.87199088600744],[128.58410593593553,35.872085814725104],[128.58403795097504,35.87218665261587],[128.58398243683973,35.87229242857625],[128.5839399282021,35.87240212394353],[128.58393745646566,35.87240979621216],[128.58362843029118,35.8723887217385],[128.58355401327273,35.87238363924485],[128.58284644046253,35.872316182227486],[128.5828162357745,35.87231356506868],[128.58237124222867,35.87227886561387],[128.58221526579788,35.872266789760175],[128.58209183185465,35.87226157019485],[128.58196830265055,35.87226498466869],[128.58184558816637,35.87227700802858],[128.58054245659628,35.872451138210245],[128.58041627319648,35.87246759065878],[128.5800647929817,35.87278051257966],[128.57956978597284,35.87331889284644],[128.57914199253042,35.87389416883603],[128.578889612529,35.8743236774265],[128.57895751781967,35.87440435472518],[128.57904843075167,35.874492417912876],[128.57914951162306,35.87457280438845],[128.5792597869689,35.87464473996215],[128.57937819476476,35.87470753183152],[128.5795035946551,35.87476057525437],[128.57963477893648,35.874803359373644],[128.57977048418957,35.87483547213798],[128.57990940344828,35.87485660427067],[128.58005019878857,35.87486655224867],[128.58019151421544,35.874865220262976],[128.58033198872425,35.874852621141486],[128.5810007982274,35.874765419953576],[128.58100629993015,35.874764693720216]]]}},{"type":"Feature","properties":{"zoneId":"jungangro","label":"중앙로","memberCellIds":["hex-jungang-01"],"sourceMode":"modelled-map-derived","boundaryMeaning":"실제 지도 도로/시장 geometry 기반 분석권역이며 공식 상권 경계가 아님","sourceProvider":"OpenStreetMap contributors","sourceUrl":"https://www.openstreetmap.org/","queries":["중앙대로 대구 중구"],"sourceFeatureNames":["중앙대로"],"sourceOsmIds":["way:1219921973","way:1219921975","way:1219921979","way:1219921981","way:1219921982","way:143666936","way:246782658","way:263780586","way:32895620","way:733130753"],"bufferMeters":115,"labelLon":128.5954254,"labelLat":35.8686704},"geometry":{"type":"Polygon","coordinates":[[[128.59522864771415,35.870252453515995],[128.5953640488841,35.870195952877154],[128.59548407213288,35.87013872560513],[128.5955303346842,35.87012701167558],[128.59565772696206,35.87009664488895],[128.595775830077,35.87006328986778],[128.59588934763465,35.870020673144296],[128.59599718636827,35.869969205154945],[128.59609830770862,35.8699093815809],[128.5961917377872,35.869841778573644],[128.5962765768153,35.869767047205755],[128.59635200775014,35.86968590719995],[128.5964173041629,35.86959913999703],[128.59647183723442,35.86950758122945],[128.59651508181008,35.86941211267318],[128.5965466214564,35.869313653755036],[128.59656615247007,35.86921315269769],[128.59657348680116,35.86911157738733],[128.59656855386254,35.86900990605224],[128.59655140120785,35.86890911784178],[128.59652219407167,35.86881018339667],[128.59648121377663,35.86871405550144],[128.59642885502234,35.86862165990886],[128.59636562208294,35.86853388642486],[128.5962921239494,35.86845158033982],[128.59620906846374,35.868375534288525],[128.59611725550153,35.868306480617385],[128.59601756926844,35.868245084332216],[128.59591096978508,35.86819193669462],[128.59586069636796,35.868172098763495],[128.59586075515838,35.86817175948177],[128.59586599672087,35.86807009836991],[128.59585897092612,35.86796850860284],[128.59583974548295,35.867867968543706],[128.59580850558766,35.86776944644281],[128.5957655521387,35.86767389111301],[128.59571129883722,35.86758222279245],[128.59564626820168,35.867495324282686],[128.5955710865345,35.86741403244724],[128.59548647788952,35.86733913015298],[128.59539325709852,35.86727133873119],[128.59529232192384,35.86721131103164],[128.59518464441246,35.86715962513583],[128.5950712615354,35.86711677879061],[128.59495326520172,35.86708318461514],[128.59483179174427,35.86705916612773],[128.5947080109774,35.86704495463064],[128.59458311493265,35.86704068698288],[128.59445830638055,35.86704640428233],[128.59436723352823,35.86705794124505],[128.59431097490437,35.867358065809846],[128.5942832110878,35.867782162259175],[128.59430665078727,35.8682064315931],[128.59438106907905,35.86862678784187],[128.59450575005897,35.86903918265753],[128.59467949370705,35.86943964430519],[128.59490062741617,35.869824315918585],[128.59516702207586,35.87018949265155],[128.59522516187585,35.8702538539874],[128.59522864771415,35.870252453515995]]]}},{"type":"Feature","properties":{"zoneId":"seomun","label":"서문시장","memberCellIds":["hex-seomun-01"],"sourceMode":"modelled-map-derived","boundaryMeaning":"실제 지도 도로/시장 geometry 기반 분석권역이며 공식 상권 경계가 아님","sourceProvider":"OpenStreetMap contributors","sourceUrl":"https://www.openstreetmap.org/","queries":["큰장로 대구 중구","달성로 대구 중구","서문시장 대구 중구"],"sourceFeatureNames":["달성로","서문시장","큰장로"],"sourceOsmIds":["node:13482086733","node:3495256577","node:368867948","node:8288809742","way:1086955097","way:1087527713","way:339345691","way:37398636","way:37399943","way:37402985","way:385584958","way:385706015","way:720844416","way:733130777","way:760608753","way:825348166","way:885896013"],"bufferMeters":105,"labelLon":128.583015,"labelLat":35.8718042},"geometry":{"type":"Polygon","coordinates":[[[128.58308804346518,35.874652083877734],[128.5831647638767,35.874583295020265],[128.583232830425,35.874508716996054],[128.5836455277547,35.87400684275108],[128.58370428414605,35.87392719358865],[128.5837531653608,35.87384324061243],[128.5837917006706,35.87375579234778],[128.58381951898932,35.873665690979486],[128.58383635244562,35.8735738042406],[128.5838420389614,35.873481017055475],[128.5838365238112,35.87338822301725],[128.58381986014786,35.87329631578197],[128.58379220848903,35.8732061804623],[128.58375383516997,35.87311868510347],[128.5837051097771,35.873034672323904],[128.5836465015877,35.87295495120064],[128.5835785750494,35.87288028947798],[128.5835019843436,35.8728114061742],[128.58341746708487,35.8727489646576],[128.58332583721716,35.872693566258455],[128.58327642719425,35.872669420820564],[128.5832828056117,35.872516183607054],[128.58338821326254,35.87252593461291],[128.58350234414056,35.87252732780717],[128.5836160932119,35.872519609166055],[128.58372836497225,35.87250285302663],[128.5838380781465,35.87247722076501],[128.58394417610359,35.872442959242],[128.58404563703354,35.872400398425334],[128.58414148378913,35.87234994821157],[128.58423079329748,35.872292094478055],[128.5843127054501,35.87222739440309],[128.5843864313867,35.87215647109944],[128.58445126109234,35.87208000761277],[128.5845065702351,35.871998740343074],[128.58455182617814,35.871913451951954],[128.5845865931085,35.87182496382488],[128.5846105362333,35.87173412816017],[128.58462342500266,35.87164181976163],[128.58462513532865,35.87154892761334],[128.58461565077891,35.871456346318226],[128.58459506273346,35.871364967482414],[128.584563569503,35.871275671128714],[128.58452147441784,35.871189317221756],[128.58446918290537,35.87110673738626],[128.5844071985843,35.87102872689861],[128.58433611841386,35.87095603702822],[128.584256626944,35.87088936780307],[128.5841694897226,35.87082936126858],[128.58407554592247,35.87077659530494],[128.58397570026025,35.870731578062504],[128.5838152015461,35.87066737874747],[128.58370911267048,35.87063014681323],[128.5835990091414,35.87060166489325],[128.58348597725833,35.8705822139937],[128.58337113220918,35.870571986019314],[128.58333217396887,35.87057010344495],[128.58335505521256,35.870011328694524],[128.5833663534272,35.86998596874953],[128.58339455867457,35.869895947326114],[128.58341178734352,35.869804109171476],[128.58341787354976,35.86971133874217],[128.5834127587186,35.8696185294701],[128.58339649214756,35.869526575158126],[128.5833692305302,35.869436361372365],[128.58336271029606,35.86942132742605],[128.5833571301,35.86940286148025],[128.58331913604428,35.86931525701761],[128.58327077545954,35.869231105550405],[128.58321251410985,35.8691512174914],[128.58314491310287,35.8690763621926],[128.58306862348525,35.8690072605366],[128.58298534994125,35.868945299714255],[128.58284628585852,35.86904701362786],[128.5825309065047,35.86932782164958],[128.58225085923962,35.86963243786818],[128.58200884125117,35.869957928916484],[128.58180718360376,35.87030116037282],[128.5816478287778,35.87065882693809],[128.58153231194655,35.8710274842597],[128.58146174617264,35.87140358209591],[128.5814368116666,35.871783498501664],[128.58145774921203,35.872163574706654],[128.5815243578218,35.8725401503501],[128.58163599664857,35.87290959873268],[128.58179159113223,35.873268361746426],[128.58198964332612,35.873612984145595],[128.58222824630352,35.87394014682904],[128.58250510250573,35.87424669881241],[128.58281754585687,35.874529687582736],[128.58303478128843,35.87469131351264],[128.58308804346518,35.874652083877734]]]}}]}
